OBJECT_NAME,OBJECT_ID,EPOCH,MEAN_MOTION,ECCENTRICITY,INCLINATION,RA_OF_ASC_NODE,ARG_OF_PERICENTER,MEAN_ANOMALY,EPHEMERIS_TYPE,CLASSIFICATION_TYPE,NORAD_CAT_ID,ELEMENT_SET_NO,REV_AT_EPOCH,BSTAR,MEAN_MOTION_DOT,MEAN_MOTION_DDOT
ONEWEB-0536,2022-138AM,2026-06-27T12:32:22.413696,13.20771812,.0003052,87.9184,272.3971,97.4297,262.7184,0,U,54148,999,18066,.57122E-4,.36E-6,0
ONEWEB-0527,2022-166A,2026-06-27T11:18:45.035712,13.21824848,.0002056,87.9247,241.9511,99.7293,260.4073,0,U,54642,999,17289,.14846E-3,.74E-6,0
ONEWEB-0528,2022-166B,2026-06-27T11:19:57.055296,13.21825737,.0002,87.9248,241.9533,104.5490,255.5866,0,U,54643,999,17290,.41653E-4,.3E-6,0
ONEWEB-0539,2022-166C,2026-06-27T10:25:26.677056,13.21827643,.0001888,87.9257,241.9332,93.1383,266.9967,0,U,54644,999,17289,.97215E-4,.53E-6,0
ONEWEB-0540,2022-166D,2026-06-27T10:35:19.496832,13.21827726,.0002017,87.9247,241.9613,94.6392,265.4972,0,U,54645,999,17288,.12073E-3,.63E-6,0
ONEWEB-0542,2022-166E,2026-06-27T10:39:59.315328,13.21824520,.0001893,87.9256,241.9299,90.8521,269.2830,0,U,54646,999,17289,.49437E-4,.33E-6,0
ONEWEB-0545,2022-166F,2026-06-27T09:49:06.623616,13.21828674,.000189,87.9248,241.9479,82.6113,277.5235,0,U,54647,999,17285,-.11295E-3,-.34E-6,0
ONEWEB-0580,2022-166G,2026-06-27T11:01:44.798592,13.21828819,.0002076,87.9246,241.9376,86.4052,273.7320,0,U,54648,999,17290,.49866E-4,.34E-6,0
ONEWEB-0582,2022-166H,2026-06-27T10:13:20.186112,13.21827603,.0001957,87.9248,241.9370,85.3392,274.7966,0,U,54649,999,17287,.10804E-3,.58E-6,0
ONEWEB-0583,2022-166J,2026-06-27T10:30:18.050688,13.21824914,.0002032,87.9243,241.9576,94.8515,265.2851,0,U,54650,999,17288,.1261E-3,.65E-6,0
ONEWEB-0584,2022-166K,2026-06-27T10:59:20.538240,13.21834785,.0002194,87.9242,241.9391,95.0250,265.1134,0,U,54651,999,17287,.21857E-2,.916E-5,0
ONEWEB-0585,2022-166L,2026-06-27T09:44:16.365408,13.21827559,.0002087,87.9249,241.9369,102.4086,257.7282,0,U,54652,999,17287,-.86779E-4,-.23E-6,0
ONEWEB-0586,2022-166M,2026-06-27T10:03:39.470976,13.21824948,.0001945,87.9247,241.9597,94.0754,266.0602,0,U,54653,999,17287,.42352E-4,.31E-6,0
ONEWEB-0587,2022-166N,2026-06-27T04:51:11.002752,13.21825172,.00022372,87.9260,241.9774,106.3300,253.8080,0,U,54654,999,17300,.16732967E-3,.82E-6,0
ONEWEB-0589,2022-166P,2026-06-27T09:58:48.766080,13.21825647,.0002057,87.9245,241.9458,73.3209,286.8151,0,U,54655,999,17289,.16226E-3,.8E-6,0
ONEWEB-0590,2022-166Q,2026-06-27T10:34:55.723872,13.21828183,.0002498,87.9254,241.9320,93.9847,266.1573,0,U,54656,999,17288,.13152E-3,.67E-6,0
ONEWEB-0591,2022-166R,2026-06-27T10:52:06.164832,13.21827271,.0002107,87.9247,241.9434,96.4718,263.6656,0,U,54657,999,17291,.17876E-4,.2E-6,0
ONEWEB-0592,2022-166S,2026-06-27T10:56:54.835008,13.21828426,.0002063,87.9255,241.9218,97.5851,262.5517,0,U,54658,999,17279,-.51263E-4,-.8E-7,0
ONEWEB-0593,2022-166T,2026-06-27T09:39:25.599168,13.21824781,.0001908,87.9247,241.9434,96.3504,263.7847,0,U,54659,999,17289,.28792E-4,.25E-6,0
ONEWEB-0594,2022-166U,2026-06-27T10:08:28.879008,13.21828233,.000201,87.9246,241.9557,102.7372,257.3987,0,U,54660,999,17291,.17589E-3,.86E-6,0
ONEWEB-0595,2022-166V,2026-06-27T11:23:35.083104,13.21825066,.0002217,87.9256,241.9268,102.9447,257.1935,0,U,54661,999,17289,-.48921E-4,-.7E-7,0
ONEWEB-0596,2022-166W,2026-06-27T10:47:14.811936,13.21827510,.0002135,87.9247,241.9426,99.9889,260.1486,0,U,54662,999,17289,-.35176E-4,-.2E-7,0
ONEWEB-0597,2022-166X,2026-06-27T10:20:36.163104,13.21827455,.0001998,87.9247,241.9492,94.7994,265.3368,0,U,54663,999,17289,.20091E-4,.21E-6,0
ONEWEB-0600,2022-166Y,2026-06-27T09:53:58.062048,13.21825363,.0001833,87.9246,241.9443,98.6426,261.4916,0,U,54664,999,17286,.10355E-4,.17E-6,0
ONEWEB-0601,2022-166Z,2026-06-27T09:41:49.557984,13.21822035,.0001982,87.9246,241.9620,90.6381,269.4980,0,U,54665,999,17305,.12809E-2,.542E-5,0
ONEWEB-0602,2022-166AA,2026-06-27T10:41:11.218272,13.21826834,.0001778,87.9246,241.9597,98.8728,261.2607,0,U,54666,999,17290,-.11394E-3,-.34E-6,0
ONEWEB-0603,2022-166AB,2026-06-27T10:49:40.539360,13.21826851,.0001964,87.9255,241.9165,95.9225,264.2132,0,U,54667,999,17283,-.11375E-3,-.34E-6,0
ONEWEB-0604,2022-166AC,2026-06-27T10:32:41.197344,13.21828113,.0002074,87.9256,241.9346,100.2837,259.8531,0,U,54668,999,17279,-.42705E-4,-.5E-7,0
ONEWEB-0605,2022-166AD,2026-06-27T10:23:01.826592,13.21827414,.0002367,87.9248,241.9485,83.4213,276.7190,0,U,54669,999,17286,.94166E-4,.52E-6,0
ONEWEB-0606,2022-166AE,2026-06-27T10:54:30.128832,13.21826109,.0001795,87.9290,241.9589,103.9700,256.1633,0,U,54670,999,17292,-.1684E-2,-.682E-5,0
ONEWEB-0607,2022-166AF,2026-06-27T10:06:04.781088,13.21824936,.0001938,87.9254,241.9349,95.4896,264.6459,0,U,54671,999,17289,.15759E-3,.78E-6,0
