ONEWEB-0536             
1 54148U 22138AM  26178.52248164  .00000036  00000+0  57122-4 0  9993
2 54148  87.9184 272.3971 0003052  97.4297 262.7184 13.20771812180663
ONEWEB-0527             
1 54642U 22166A   26178.47135458  .00000074  00000+0  14846-3 0  9995
2 54642  87.9247 241.9511 0002056  99.7293 260.4073 13.21824848172895
ONEWEB-0528             
1 54643U 22166B   26178.47218814  .00000030  00000+0  41653-4 0  9993
2 54643  87.9248 241.9533 0002000 104.5490 255.5866 13.21825737172909
ONEWEB-0539             
1 54644U 22166C   26178.43433654  .00000053  00000+0  97215-4 0  9991
2 54644  87.9257 241.9332 0001888  93.1383 266.9967 13.21827643172898
ONEWEB-0540             
1 54645U 22166D   26178.44119788  .00000063  00000+0  12073-3 0  9991
2 54645  87.9247 241.9613 0002017  94.6392 265.4972 13.21827726172882
ONEWEB-0542             
1 54646U 22166E   26178.44443652  .00000033  00000+0  49437-4 0  9994
2 54646  87.9256 241.9299 0001893  90.8521 269.2830 13.21824520172891
ONEWEB-0545             
1 54647U 22166F   26178.40910444 -.00000034  00000+0 -11295-3 0  9992
2 54647  87.9248 241.9479 0001890  82.6113 277.5235 13.21828674172857
ONEWEB-0580             
1 54648U 22166G   26178.45954628  .00000034  00000+0  49866-4 0  9994
2 54648  87.9246 241.9376 0002076  86.4052 273.7320 13.21828819172903
ONEWEB-0582             
1 54649U 22166H   26178.42592808  .00000058  00000+0  10804-3 0  9995
2 54649  87.9248 241.9370 0001957  85.3392 274.7966 13.21827603172875
ONEWEB-0583             
1 54650U 22166J   26178.43770892  .00000065  00000+0  12610-3 0  9994
2 54650  87.9243 241.9576 0002032  94.8515 265.2851 13.21824914172888
ONEWEB-0584             
1 54651U 22166K   26178.45787660  .00000916  00000+0  21857-2 0  9995
2 54651  87.9242 241.9391 0002194  95.0250 265.1134 13.21834785172870
ONEWEB-0585             
1 54652U 22166L   26178.40574497 -.00000023  00000+0 -86779-4 0  9990
2 54652  87.9249 241.9369 0002087 102.4086 257.7282 13.21827559172876
ONEWEB-0586             
1 54653U 22166M   26178.41920684  .00000031  00000+0  42352-4 0  9991
2 54653  87.9247 241.9597 0001945  94.0754 266.0602 13.21824948172876
ONEWEB-0587             
1 54654U 22166N   26178.20221068  .00000082  00000+0  16733-3 0  9998
2 54654  87.9260 241.9774 0002237 106.3300 253.8080 13.21825172173008
ONEWEB-0589             
1 54655U 22166P   26178.41584220  .00000080  00000+0  16226-3 0  9999
2 54655  87.9245 241.9458 0002057  73.3209 286.8151 13.21825647172890
ONEWEB-0590             
1 54656U 22166Q   26178.44092273  .00000067  00000+0  13152-3 0  9995
2 54656  87.9254 241.9320 0002498  93.9847 266.1573 13.21828183172880
ONEWEB-0591             
1 54657U 22166R   26178.45284913  .00000020  00000+0  17876-4 0  9998
2 54657  87.9247 241.9434 0002107  96.4718 263.6656 13.21827271172916
ONEWEB-0592             
1 54658U 22166S   26178.45619022 -.00000008  00000+0 -51263-4 0  9998
2 54658  87.9255 241.9218 0002063  97.5851 262.5517 13.21828426172790
ONEWEB-0593             
1 54659U 22166T   26178.40237962  .00000025  00000+0  28792-4 0  9991
2 54659  87.9247 241.9434 0001908  96.3504 263.7847 13.21824781172891
ONEWEB-0594             
1 54660U 22166U   26178.42255647  .00000086  00000+0  17589-3 0  9993
2 54660  87.9246 241.9557 0002010 102.7372 257.3987 13.21828233172911
ONEWEB-0595             
1 54661U 22166V   26178.47471161 -.00000007  00000+0 -48921-4 0  9990
2 54661  87.9256 241.9268 0002217 102.9447 257.1935 13.21825066172895
ONEWEB-0596             
1 54662U 22166W   26178.44947699 -.00000002  00000+0 -35176-4 0  9995
2 54662  87.9247 241.9426 0002135  99.9889 260.1486 13.21827510172897
ONEWEB-0597             
1 54663U 22166X   26178.43097411  .00000021  00000+0  20091-4 0  9992
2 54663  87.9247 241.9492 0001998  94.7994 265.3368 13.21827455172891
ONEWEB-0600             
1 54664U 22166Y   26178.41247757  .00000017  00000+0  10355-4 0  9998
2 54664  87.9246 241.9443 0001833  98.6426 261.4916 13.21825363172867
ONEWEB-0601             
1 54665U 22166Z   26178.40404581  .00000542  00000+0  12809-2 0  9995
2 54665  87.9246 241.9620 0001982  90.6381 269.4980 13.21822035173056
ONEWEB-0602             
1 54666U 22166AA  26178.44526873 -.00000034  00000+0 -11394-3 0  9996
2 54666  87.9246 241.9597 0001778  98.8728 261.2607 13.21826834172908
ONEWEB-0603             
1 54667U 22166AB  26178.45116365 -.00000034  00000+0 -11375-3 0  9998
2 54667  87.9255 241.9165 0001964  95.9225 264.2132 13.21826851172834
ONEWEB-0604             
1 54668U 22166AC  26178.43936571 -.00000005  00000+0 -42705-4 0  9996
2 54668  87.9256 241.9346 0002074 100.2837 259.8531 13.21828113172790
ONEWEB-0605             
1 54669U 22166AD  26178.43266003  .00000052  00000+0  94166-4 0  9991
2 54669  87.9248 241.9485 0002367  83.4213 276.7190 13.21827414172861
ONEWEB-0606             
1 54670U 22166AE  26178.45451538 -.00000682  00000+0 -16840-2 0  9996
2 54670  87.9290 241.9589 0001795 103.9700 256.1633 13.21826109172929
ONEWEB-0607             
1 54671U 22166AF  26178.42088867  .00000078  00000+0  15759-3 0  9991
2 54671  87.9254 241.9349 0001938  95.4896 264.6459 13.21824936172896
